NORAD_CAT_ID,OBJECT_NAME,OBJECT_TYPE,EPOCH,MEAN_MOTION,ECCENTRICITY,INCLINATION,RA_OF_ASC_NODE,ARG_OF_PERICENTER,MEAN_ANOMALY,BSTAR,MEAN_MOTION_DOT,MEAN_MOTION_DDOT,TLE_LINE0,TLE_LINE1,TLE_LINE2,SEMIMAJOR_AXIS,PERIOD,APOGEE,PERIGEE,DECAYED
52094.0,STARLINK-3714,PAYLOAD,2022-09-17 09:13:59,15.08825467,0.0001674,53.2172,27.2521,50.6991,309.4149,-8.1648e-05,-1.587e-05,0.0,0 STARLINK-3714,1 52094U 22029G   22260.38472116 -.00001587  00000-0 -81648-4 0  9993,2 52094  53.2172  27.2521 0001674  50.6991 309.4149 15.08825467 29039,6917.925,95.438,540.948,538.632,0.0
52094.0,STARLINK-3714,PAYLOAD,2022-09-17 12:24:46,15.08828292,0.0001496,53.2188,26.6563,54.4125,305.7006,-8.9357e-05,-1.709e-05,0.0,0 STARLINK-3714,1 52094U 22029G   22260.51719986 -.00001709  00000-0 -89357-4 0  9998,2 52094  53.2188  26.6563 0001496  54.4125 305.7006 15.08828292 29050,6917.916,95.438,540.816,538.746,0.0
52094.0,STARLINK-3714,PAYLOAD,2022-09-17 15:35:32,15.08831939,0.0001506999999999,53.2189,26.0616,53.544,306.5691,-6.277600000000001e-05,-1.287e-05,0.0,0 STARLINK-3714,1 52094U 22029G   22260.64967752 -.00001287  00000-0 -62776-4 0  9995,2 52094  53.2189  26.0616 0001507  53.5440 306.5691 15.08831939 29070,6917.905,95.438,540.813,538.7280000000002,0.0
52094.0,STARLINK-3714,PAYLOAD,2022-09-18 09:04:45,15.08864144,0.0001359,53.2195,22.7903,49.4491,310.6619,-0.0002449,-4.186e-05,0.0,0 STARLINK-3714,1 52094U 22029G   22261.37830883 -.00004186  00000-0 -24490-3 0  9991,2 52094  53.2195  22.7903 0001359  49.4491 310.6619 15.08864144 29186,6917.807,95.436,540.612,538.731,0.0
52094.0,STARLINK-3714,PAYLOAD,2022-09-18 12:15:33,15.08798462,0.000198,53.2197,22.196,69.6461,290.4743,0.00074513,0.00011577,0.0,0 STARLINK-3714,1 52094U 22029G   22261.51079913  .00011577  00000-0  74513-3 0  9997,2 52094  53.2197  22.1960 0001980  69.6461 290.4743 15.08798462 29201,6918.007,95.44,541.242,538.503,0.0
52094.0,STARLINK-3714,PAYLOAD,2022-09-18 15:26:17,15.08857874,0.0001545,53.2197,21.6013,55.3268,304.7869,1.7099e-05,-1.6e-07,0.0,0 STARLINK-3714,1 52094U 22029G   22261.64326289 -.00000016  00000-0  17099-4 0  9996,2 52094  53.2197  21.6013 0001545  55.3268 304.7869 15.08857874 29221,6917.826,95.436,540.76,538.622,0.0
52094.0,STARLINK-3714,PAYLOAD,2022-09-19 00:58:37,15.08832764,0.000148,53.2193,19.817,53.6904,306.4225,0.00018363,2.635e-05,0.0,0 STARLINK-3714,1 52094U 22029G   22262.04071621  .00002635  00000-0  18363-3 0  9990,2 52094  53.2193  19.8170 0001480  53.6904 306.4225 15.08832764 29288,6917.903,95.438,540.7909999999998,538.744,0.0
52094.0,STARLINK-3714,PAYLOAD,2022-09-19 12:06:20,15.08828841,0.0001546,53.2199,17.7359,52.521,307.5923,4.9256e-05,4.96e-06,0.0,0 STARLINK-3714,1 52094U 22029G   22262.50440450  .00000496  00000-0  49256-4 0  9990,2 52094  53.2199  17.7359 0001546  52.5210 307.5923 15.08828841 29357,6917.9140000000025,95.438,540.849,538.71,0.0
52094.0,STARLINK-3714,PAYLOAD,2022-09-20 13:32:30,15.08838061,0.0001583,53.22,12.9781,54.5444,305.5696,-5.6971e-05,-1.195e-05,0.0,0 STARLINK-3714,1 52094U 22029G   22263.56424607 -.00001195  00000-0 -56971-4 0  9994,2 52094  53.2200  12.9781 0001583  54.5444 305.5696 15.08838061 29516,6917.886,95.438,540.846,538.656,0.0
52094.0,STARLINK-3714,PAYLOAD,2022-09-20 15:07:52,15.08856582,0.0001486999999999,53.22,12.6803,58.4932,301.6206,7.923e-05,9.74e-06,0.0,0 STARLINK-3714,1 52094U 22029G   22263.63046406  .00000974  00000-0  79230-4 0  9994,2 52094  53.2200  12.6803 0001487  58.4932 301.6206 15.08856582 29529,6917.83,95.437,540.7230000000002,538.6659999999998,0.0
52094.0,STARLINK-3714,PAYLOAD,2022-09-21 07:01:43,15.08843621,0.0001453999999999,53.2205,9.7072,58.7369,301.3765,8.8173e-05,1.116e-05,0.0,0 STARLINK-3714,1 52094U 22029G   22264.29286963  .00001116  00000-0  88173-4 0  9996,2 52094  53.2205   9.7072 0001454  58.7369 301.3765 15.08843621 29628,6917.869000000002,95.437,540.74,538.7280000000002,0.0
52094.0,STARLINK-3714,PAYLOAD,2022-09-21 13:23:16,15.08839019,0.0001610999999999,53.2201,8.5178,53.2882,306.8258,3.3321e-05,2.42e-06,0.0,0 STARLINK-3714,1 52094U 22029G   22264.55783377  .00000242  00000-0  33321-4 0  9990,2 52094  53.2201   8.5178 0001611  53.2882 306.8258 15.08839019 29660,6917.8830000000025,95.438,540.863,538.634,0.0
52094.0,STARLINK-3714,PAYLOAD,2022-09-22 00:30:57,15.08855092,0.0001809,53.2205,6.4367,58.6936,301.4233,0.00017068,2.43e-05,0.0,0 STARLINK-3714,1 52094U 22029G   22265.02149568  .00002430  00000-0  17068-3 0  9991,2 52094  53.2205   6.4367 0001809  58.6936 301.4233 15.08855092 29730,6917.834,95.437,540.951,538.448,0.0
52094.0,STARLINK-3714,PAYLOAD,2022-09-22 13:14:01,15.08854197,0.0001344,53.2215,4.0571,56.4078,303.7042,0.00013981,1.939e-05,0.0,0 STARLINK-3714,1 52094U 22029G   22265.55141078  .00001939  00000-0  13981-3 0  9990,2 52094  53.2215   4.0571 0001344  56.4078 303.7042 15.08854197 29816,6917.837,95.437,540.632,538.7719999999998,0.0
52094.0,STARLINK-3714,PAYLOAD,2022-09-23 09:54:04,15.08831768,0.0001558,53.2199,0.1922,52.1743,307.939,-2.5665e-06,-3.29e-06,0.0,0 STARLINK-3714,1 52094U 22029G   22266.41254638 -.00000329  00000-0 -25665-5 0  9991,2 52094  53.2199   0.1922 0001558  52.1743 307.9390 15.08831768 29948,6917.906,95.438,540.8480000000002,538.693,0.0
52094.0,STARLINK-3714,PAYLOAD,2022-09-23 13:04:50,15.08831754,0.0001727,53.2195,359.5985,43.2656,316.8472,2.3492e-06,-2.51e-06,0.0,0 STARLINK-3714,1 52094U 22029G   22266.54502660 -.00000251  00000-0  23492-5 0  9995,2 52094  53.2195 359.5985 0001727  43.2656 316.8472 15.08831754 29963,6917.906,95.438,540.965,538.576,0.0
52094.0,STARLINK-3714,PAYLOAD,2022-09-24 12:55:35,15.08880268,0.0001759,53.2193,355.1375,34.2839,325.8266,-0.00064883,-0.00010611,0.0,0 STARLINK-3714,1 52094U 22029G   22267.53860872 -.00010611  00000-0 -64883-3 0  9996,2 52094  53.2193 355.1375 0001759  34.2839 325.8266 15.08880268 30118,6917.757,95.435,540.839,538.405,0.0
52094.0,STARLINK-3714,PAYLOAD,2022-09-24 14:31:00,15.08810339,0.0001797,53.2195,354.8401,43.4977,316.6156,0.00033065,4.974e-05,0.0,0 STARLINK-3714,1 52094U 22029G   22267.60486682  .00004974  00000-0  33065-3 0  9998,2 52094  53.2195 354.8401 0001797  43.4977 316.6156 15.08810339 30122,6917.971,95.439,541.0790000000002,538.5930000000002,0.0
52094.0,STARLINK-3714,PAYLOAD,2022-09-25 12:46:24,15.08835421,0.0001818,53.2192,350.6753,38.3722,321.7399,0.00010445,1.374e-05,0.0,0 STARLINK-3714,1 52094U 22029G   22268.53222247  .00001374  00000-0  10445-3 0  9994,2 52094  53.2192 350.6753 0001818  38.3722 321.7399 15.08835421 30268,6917.894,95.438,541.0169999999998,538.502,0.0
52094.0,STARLINK-3714,PAYLOAD,2022-09-26 09:26:28,15.08793633,0.0001712,53.2193,346.8109,48.0751,312.0387,-0.00028884,-4.876e-05,0.0,0 STARLINK-3714,1 52094U 22029G   22269.39339078 -.00004876  00000-0 -28884-3 0  9998,2 52094  53.2193 346.8109 0001712  48.0751 312.0387 15.08793633 30396,6918.022,95.44,541.071,538.703,0.0
52094.0,STARLINK-3714,PAYLOAD,2022-09-27 12:28:00,15.08831777,0.0001844,53.2205,341.7592,67.6097,292.509,0.00014889,2.082e-05,0.0,0 STARLINK-3714,1 52094U 22029G   22270.51944704  .00002082  00000-0  14889-3 0  9997,2 52094  53.2205 341.7592 0001844  67.6097 292.5090 15.08831777 30560,6917.906,95.438,541.0459999999998,538.495,0.0
52094.0,STARLINK-3714,PAYLOAD,2022-09-27 22:00:18,15.08842072,0.0002039,53.2205,339.9734,57.8647,302.2543,0.00025263,3.735e-05,0.0,0 STARLINK-3714,1 52094U 22029G   22270.91688153  .00003735  00000-0  25263-3 0  9998,2 52094  53.2205 339.9734 0002039  57.8647 302.2543 15.08842072 30625,6917.874,95.437,541.15,538.3290000000002,0.0
52094.0,STARLINK-3714,PAYLOAD,2022-09-28 10:43:24,15.08842634,0.0001975,53.2189,337.5948,60.1864,299.9325,0.0003313,4.989e-05,0.0,0 STARLINK-3714,1 52094U 22029G   22271.44681157  .00004989  00000-0  33130-3 0  9998,2 52094  53.2189 337.5948 0001975  60.1864 299.9325 15.08842634 30706,6917.871999999999,95.437,541.104,538.371,0.0
52094.0,STARLINK-3714,PAYLOAD,2022-09-28 13:54:10,15.08844265,0.0001825,53.2178,336.9991,57.7485,302.3684,0.00035856,5.424e-05,0.0,0 STARLINK-3714,1 52094U 22029G   22271.57929120  .00005424  00000-0  35856-3 0  9999,2 52094  53.2178 336.9991 0001825  57.7485 302.3684 15.08844265 30721,6917.8669999999975,95.437,540.995,538.47,0.0
52094.0,STARLINK-3714,PAYLOAD,2022-09-29 10:34:11,15.08840982,0.0001915,53.2174,333.1332,56.9903,303.1273,-9.0469e-06,-4.32e-06,0.0,0 STARLINK-3714,1 52094U 22029G   22272.44041060 -.00000432  00000-0 -90469-5 0  9993,2 52094  53.2174 333.1332 0001915  56.9903 303.1273 15.08840982 30850,6917.877,95.437,541.067,538.418,0.0
52094.0,STARLINK-3714,PAYLOAD,2022-09-29 13:44:57,15.08839099,0.0001792,53.2182,332.5398,51.2918,308.8235,-1.3025e-05,-4.95e-06,0.0,0 STARLINK-3714,1 52094U 22029G   22272.57289212 -.00000495  00000-0 -13025-4 0  9991,2 52094  53.2182 332.5398 0001792  51.2918 308.8235 15.08839099 30870,6917.8830000000025,95.438,540.988,538.508,0.0
52094.0,STARLINK-3714,PAYLOAD,2022-09-30 10:24:58,15.0885423,0.0001847,53.2184,328.6744,52.3565,307.7595,0.00032203,4.843e-05,0.0,0 STARLINK-3714,1 52094U 22029G   22273.43400725  .00004843  00000-0  32203-3 0  9998,2 52094  53.2184 328.6744 0001847  52.3565 307.7595 15.08854230 31001,6917.837,95.437,540.98,538.424,0.0
52094.0,STARLINK-3714,PAYLOAD,2022-09-30 13:35:44,15.08856119,0.0001827,53.2181,328.0793,50.4533,309.6621,0.00045248,6.924e-05,0.0,0 STARLINK-3714,1 52094U 22029G   22273.56648685  .00006924  00000-0  45248-3 0  9996,2 52094  53.2181 328.0793 0001827  50.4533 309.6621 15.08856119 31029,6917.831,95.437,540.96,538.432,0.0
52094.0,STARLINK-3714,PAYLOAD,2022-10-01 11:51:07,15.08859589,0.0001789,53.2181,323.9161,47.3768,312.7375,0.00032457,4.884e-05,0.0,0 STARLINK-3714,1 52094U 22029G   22274.49383699  .00004884  00000-0  32457-3 0  9991,2 52094  53.2181 323.9161 0001789  47.3768 312.7375 15.08859589 31164,6917.821,95.436,540.923,538.448,0.0
